NUSHSAT1                
1 63211U 25052B   26068.64700493  .00023034  00000+0  74857-3 0  9997
2 63211  97.4095 325.7239 0005501  84.7512 275.4357 15.31903202 54882
STARLINK-34496          
1 64476U 25133E   26068.52973073  .00033481  00000+0  11374-2 0  9995
2 64476  53.1592 117.5629 0001232  82.7578 277.3563 15.30202378 41166
